0 NOAA 7 DEB
1 24914U 81059F   13281.86833473  .00001361  00000-0  51714-3 0   397
2 24914 098.5604 261.4261 0026265 235.3569 124.5139 14.32418041838776
0 NOAA 7 DEB
1 24914U 81059F   13283.12567158  .00001547  00000-0  58573-3 0   400
2 24914 098.5605 262.6677 0026317 231.4340 128.4486 14.32426433838955
0 NOAA 7 DEB
1 24914U 81059F   13286.12928826  .00002020  00000-0  75958-3 0   421
2 24914 098.5600 265.6331 0026338 222.3622 137.5529 14.32435909839380
0 NOAA 7 DEB
1 24914U 81059F   13287.45646071  .00002315  00000-0  86798-3 0   439
2 24914 098.5599 266.9435 0026417 218.2356 141.6955 14.32440898839575
0 NOAA 7 DEB
1 24914U 81059F   13288.50422410  .00003048  00000-0  11373-2 0   446
2 24914 098.5601 267.9782 0026487 215.0045 144.9399 14.32448280839720
0 NOAA 7 DEB
1 24914U 81059F   13289.83138528  .00002794  00000-0  10439-2 0   457
2 24914 098.5603 269.2885 0026556 210.9131 149.0490 14.32455215839913
0 NOAA 7 DEB
1 24914U 81059F   13291.15853999  .00002632  00000-0  98393-3 0   469
2 24914 098.5608 270.5987 0026613 206.7434 153.2379 14.32461381840106
0 NOAA 7 DEB
1 24914U 81059F   13292.69523749  .00002993  00000-0  11167-2 0   470
2 24914 098.5613 272.1160 0026709 201.9819 158.0222 14.32468424840322
0 NOAA 7 DEB
1 24914U 81059F   13293.81283093  .00003092  00000-0  11527-2 0   482
2 24914 098.5617 273.2195 0026796 198.5737 161.4471 14.32474381840482
0 NOAA 7 DEB
1 24914U 81059F   13295.48921273  .00003444  00000-0  12819-2 0   493
2 24914 098.5620 274.8751 0026908 193.3759 166.6714 14.32483562840728
